0 DELTA 1 DEB
1 12825U 78026EW  13282.18001397  .00000142  00000-0  14003-3 0  2357
2 12825 099.1607 032.3273 0061913 075.1738 041.5658 13.93250679659489
0 DELTA 1 DEB
1 12825U 78026EW  13284.19061469 -.00000028  00000-0  12209-4 0  2368
2 12825 099.1611 034.3177 0061820 069.7763 046.0663 13.93252865659769
0 DELTA 1 DEB
1 12825U 78026EW  13286.19199903 -.00000074  00000-0 -22438-4 0  2373
2 12825 099.1615 036.2991 0061712 064.3825 004.3817 13.93253396660049
0 DELTA 1 DEB
1 12825U 78026EW  13288.27152587  .00000099  00000-0  10820-3 0  2388
2 12825 099.1617 038.3579 0061601 058.8164 354.6056 13.93252597660337
0 DELTA 1 DEB
1 12825U 78026EW  13290.57221190  .00000287  00000-0  24953-3 0  2393
2 12825 099.1618 040.6359 0061545 052.6005 014.1482 13.93251528660652
0 DELTA 1 DEB
1 12825U 78026EW  13292.88157086  .00000367  00000-0  31016-3 0  2400
2 12825 099.1616 042.9225 0061462 046.3292 077.2150 13.93252225660975
0 DELTA 1 DEB
1 12825U 78026EW  13294.89095433  .00000244  00000-0  21734-3 0  2411
2 12825 099.1617 044.9122 0061395 040.8878 075.6764 13.93254790661252
